{
  "divisions": [
    {
      "id": "1",
      "name": "Dhaka",
      "bn_name": "ঢাকা"
    },
    {
      "id": "2",
      "name": "Chattogram",
      "bn_name": "চট্টগ্রাম"
    },
    {
      "id": "3",
      "name": "Rajshahi",
      "bn_name": "রাজশাহী"
    },
    {
      "id": "4",
      "name": "Khulna",
      "bn_name": "খুলনা"
    },
    {
      "id": "5",
      "name": "Barishal",
      "bn_name": "বরিশাল"
    },
    {
      "id": "6",
      "name": "Sylhet",
      "bn_name": "সিলেট"
    },
    {
      "id": "7",
      "name": "Rangpur",
      "bn_name": "রংপুর"
    },
    {
      "id": "8",
      "name": "Mymensingh",
      "bn_name": "ময়মনসিংহ"
    }
  ],
  "districts": [
    {
      "id": "1",
      "division_id": "1",
      "name": "Dhaka",
      "bn_name": "ঢাকা"
    },
    {
      "id": "2",
      "division_id": "1",
      "name": "Faridpur",
      "bn_name": "ফরিদপুর"
    },
    {
      "id": "3",
      "division_id": "1",
      "name": "Gazipur",
      "bn_name": "গাজীপুর"
    },
    {
      "id": "4",
      "division_id": "1",
      "name": "Gopalganj",
      "bn_name": "গোপালগঞ্জ"
    },
    {
      "id": "5",
      "division_id": "1",
      "name": "Kishoreganj",
      "bn_name": "কিশোরগঞ্জ"
    },
    {
      "id": "6",
      "division_id": "1",
      "name": "Madaripur",
      "bn_name": "মাদারীপুর"
    },
    {
      "id": "7",
      "division_id": "1",
      "name": "Manikganj",
      "bn_name": "মানিকগঞ্জ"
    },
    {
      "id": "8",
      "division_id": "1",
      "name": "Munshiganj",
      "bn_name": "মুন্সিগঞ্জ"
    },
    {
      "id": "9",
      "division_id": "1",
      "name": "Narayanganj",
      "bn_name": "নারায়ণগঞ্জ"
    },
    {
      "id": "10",
      "division_id": "1",
      "name": "Narsingdi",
      "bn_name": "নরসিংদী"
    },
    {
      "id": "11",
      "division_id": "1",
      "name": "Rajbari",
      "bn_name": "রাজবাড়ী"
    },
    {
      "id": "12",
      "division_id": "1",
      "name": "Shariatpur",
      "bn_name": "শরীয়তপুর"
    },
    {
      "id": "13",
      "division_id": "1",
      "name": "Tangail",
      "bn_name": "টাঙ্গাইল"
    },
    {
      "id": "14",
      "division_id": "2",
      "name": "Bandarban",
      "bn_name": "বান্দরবান"
    },
    {
      "id": "15",
      "division_id": "2",
      "name": "Brahmanbaria",
      "bn_name": "ব্রাহ্মণবাড়িয়া"
    },
    {
      "id": "16",
      "division_id": "2",
      "name": "Chandpur",
      "bn_name": "চাঁদপুর"
    },
    {
      "id": "17",
      "division_id": "2",
      "name": "Chattogram",
      "bn_name": "চট্টগ্রাম"
    },
    {
      "id": "18",
      "division_id": "2",
      "name": "Cumilla",
      "bn_name": "কুমিল্লা"
    },
    {
      "id": "19",
      "division_id": "2",
      "name": "Cox's Bazar",
      "bn_name": "কক্সবাজার"
    },
    {
      "id": "20",
      "division_id": "2",
      "name": "Feni",
      "bn_name": "ফেনী"
    },
    {
      "id": "21",
      "division_id": "2",
      "name": "Khagrachari",
      "bn_name": "খাগড়াছড়ি"
    },
    {
      "id": "22",
      "division_id": "2",
      "name": "Lakshmipur",
      "bn_name": "লক্ষ্মীপুর"
    },
    {
      "id": "23",
      "division_id": "2",
      "name": "Noakhali",
      "bn_name": "নোয়াখালী"
    },
    {
      "id": "24",
      "division_id": "2",
      "name": "Rangamati",
      "bn_name": "রাঙ্গামাটি"
    },
    {
      "id": "25",
      "division_id": "3",
      "name": "Bogura",
      "bn_name": "বগুড়া"
    },
    {
      "id": "26",
      "division_id": "3",
      "name": "Joypurhat",
      "bn_name": "জয়পুরহাট"
    },
    {
      "id": "27",
      "division_id": "3",
      "name": "Naogaon",
      "bn_name": "নওগাঁ"
    },
    {
      "id": "28",
      "division_id": "3",
      "name": "Natore",
      "bn_name": "নাটোর"
    },
    {
      "id": "29",
      "division_id": "3",
      "name": "Chapainawabganj",
      "bn_name": "চাঁপাইনবাবগঞ্জ"
    },
    {
      "id": "30",
      "division_id": "3",
      "name": "Pabna",
      "bn_name": "পাবনা"
    },
    {
      "id": "31",
      "division_id": "3",
      "name": "Rajshahi",
      "bn_name": "রাজশাহী"
    },
    {
      "id": "32",
      "division_id": "3",
      "name": "Sirajganj",
      "bn_name": "সিরাজগঞ্জ"
    },
    {
      "id": "33",
      "division_id": "4",
      "name": "Bagerhat",
      "bn_name": "বাগেরহাট"
    },
    {
      "id": "34",
      "division_id": "4",
      "name": "Chuadanga",
      "bn_name": "চুয়াডাঙ্গা"
    },
    {
      "id": "35",
      "division_id": "4",
      "name": "Jashore",
      "bn_name": "যশোর"
    },
    {
      "id": "36",
      "division_id": "4",
      "name": "Jhenaidah",
      "bn_name": "ঝিনাইদহ"
    },
    {
      "id": "37",
      "division_id": "4",
      "name": "Khulna",
      "bn_name": "খুলনা"
    },
    {
      "id": "38",
      "division_id": "4",
      "name": "Kushtia",
      "bn_name": "কুষ্টিয়া"
    },
    {
      "id": "39",
      "division_id": "4",
      "name": "Magura",
      "bn_name": "মাগুরা"
    },
    {
      "id": "40",
      "division_id": "4",
      "name": "Meherpur",
      "bn_name": "মেহেরপুর"
    },
    {
      "id": "41",
      "division_id": "4",
      "name": "Narail",
      "bn_name": "নড়াইল"
    },
    {
      "id": "42",
      "division_id": "4",
      "name": "Satkhira",
      "bn_name": "সাতক্ষীরা"
    },
    {
      "id": "43",
      "division_id": "5",
      "name": "Barguna",
      "bn_name": "বরগুনা"
    },
    {
      "id": "44",
      "division_id": "5",
      "name": "Barishal",
      "bn_name": "বরিশাল"
    },
    {
      "id": "45",
      "division_id": "5",
      "name": "Bhola",
      "bn_name": "ভোলা"
    },
    {
      "id": "46",
      "division_id": "5",
      "name": "Jhalokati",
      "bn_name": "ঝালকাঠি"
    },
    {
      "id": "47",
      "division_id": "5",
      "name": "Patuakhali",
      "bn_name": "পটুয়াখালী"
    },
    {
      "id": "48",
      "division_id": "5",
      "name": "Pirojpur",
      "bn_name": "পিরোজপুর"
    },
    {
      "id": "49",
      "division_id": "6",
      "name": "Habiganj",
      "bn_name": "হবিগঞ্জ"
    },
    {
      "id": "50",
      "division_id": "6",
      "name": "Moulvibazar",
      "bn_name": "মৌলভীবাজার"
    },
    {
      "id": "51",
      "division_id": "6",
      "name": "Sunamganj",
      "bn_name": "সুনামগঞ্জ"
    },
    {
      "id": "52",
      "division_id": "6",
      "name": "Sylhet",
      "bn_name": "সিলেট"
    },
    {
      "id": "53",
      "division_id": "7",
      "name": "Dinajpur",
      "bn_name": "দিনাজপুর"
    },
    {
      "id": "54",
      "division_id": "7",
      "name": "Gaibandha",
      "bn_name": "গাইবান্ধা"
    },
    {
      "id": "55",
      "division_id": "7",
      "name": "Kurigram",
      "bn_name": "কুড়িগ্রাম"
    },
    {
      "id": "56",
      "division_id": "7",
      "name": "Lalmonirhat",
      "bn_name": "লালমনিরহাট"
    },
    {
      "id": "57",
      "division_id": "7",
      "name": "Nilphamari",
      "bn_name": "নীলফামারী"
    },
    {
      "id": "58",
      "division_id": "7",
      "name": "Panchagarh",
      "bn_name": "পঞ্চগড়"
    },
    {
      "id": "59",
      "division_id": "7",
      "name": "Rangpur",
      "bn_name": "রংপুর"
    },
    {
      "id": "60",
      "division_id": "7",
      "name": "Thakurgaon",
      "bn_name": "ঠাকুরগাঁও"
    },
    {
      "id": "61",
      "division_id": "8",
      "name": "Jamalpur",
      "bn_name": "জামালপুর"
    },
    {
      "id": "62",
      "division_id": "8",
      "name": "Mymensingh",
      "bn_name": "ময়মনসিংহ"
    },
    {
      "id": "63",
      "division_id": "8",
      "name": "Netrokona",
      "bn_name": "নেত্রকোনা"
    },
    {
      "id": "64",
      "division_id": "8",
      "name": "Sherpur",
      "bn_name": "শেরপুর"
    }
  ],
  "upazilas": [
    {
      "id": "1",
      "district_id": "1",
      "name": "Dhanmondi",
      "bn_name": "ধানমন্ডি"
    },
    {
      "id": "2",
      "district_id": "1",
      "name": "Gulshan",
      "bn_name": "গুলশান"
    },
    {
      "id": "3",
      "district_id": "1",
      "name": "Mirpur",
      "bn_name": "মিরপুর"
    },
    {
      "id": "4",
      "district_id": "1",
      "name": "Mohammadpur",
      "bn_name": "মোহাম্মদপুর"
    },
    {
      "id": "5",
      "district_id": "1",
      "name": "Uttara",
      "bn_name": "উত্তরা"
    },
    {
      "id": "6",
      "district_id": "1",
      "name": "Badda",
      "bn_name": "বাড্ডা"
    },
    {
      "id": "7",
      "district_id": "1",
      "name": "Banani",
      "bn_name": "বনানী"
    },
    {
      "id": "8",
      "district_id": "1",
      "name": "Tejgaon",
      "bn_name": "তেজগাঁও"
    },
    {
      "id": "9",
      "district_id": "1",
      "name": "Motijheel",
      "bn_name": "মতিঝিল"
    },
    {
      "id": "10",
      "district_id": "1",
      "name": "Ramna",
      "bn_name": "রমনা"
    },
    {
      "id": "11",
      "district_id": "1",
      "name": "Cantonment",
      "bn_name": "ক্যান্টনমেন্ট"
    },
    {
      "id": "12",
      "district_id": "2",
      "name": "Faridpur Sadar",
      "bn_name": "ফরিদপুর সদর"
    },
    {
      "id": "13",
      "district_id": "2",
      "name": "Boalmari",
      "bn_name": "বোয়ালমারী"
    },
    {
      "id": "14",
      "district_id": "2",
      "name": "Alfadanga",
      "bn_name": "আলফাডাঙ্গা"
    },
    {
      "id": "15",
      "district_id": "2",
      "name": "Madhukhali",
      "bn_name": "মধুখালী"
    },
    {
      "id": "16",
      "district_id": "2",
      "name": "Bhanga",
      "bn_name": "ভাঙ্গা"
    },
    {
      "id": "17",
      "district_id": "2",
      "name": "Nagarkanda",
      "bn_name": "নগরকান্দা"
    },
    {
      "id": "18",
      "district_id": "2",
      "name": "Charbhadrasan",
      "bn_name": "চরভদ্রাসন"
    },
    {
      "id": "19",
      "district_id": "2",
      "name": "Sadarpur",
      "bn_name": "সদরপুর"
    },
    {
      "id": "20",
      "district_id": "2",
      "name": "Saltha",
      "bn_name": "সালথা"
    },
    {
      "id": "21",
      "district_id": "3",
      "name": "Gazipur Sadar",
      "bn_name": "গাজীপুর সদর"
    },
    {
      "id": "22",
      "district_id": "3",
      "name": "Kaliakair",
      "bn_name": "কালিয়াকৈর"
    },
    {
      "id": "23",
      "district_id": "3",
      "name": "Kapasia",
      "bn_name": "কাপাসিয়া"
    },
    {
      "id": "24",
      "district_id": "3",
      "name": "Sreepur",
      "bn_name": "শ্রীপুর"
    },
    {
      "id": "25",
      "district_id": "3",
      "name": "Kaliganj",
      "bn_name": "কালীগঞ্জ"
    },
    {
      "id": "26",
      "district_id": "3",
      "name": "Tongi",
      "bn_name": "টঙ্গী"
    },
    {
      "id": "27",
      "district_id": "4",
      "name": "Gopalganj Sadar",
      "bn_name": "গোপালগঞ্জ সদর"
    },
    {
      "id": "28",
      "district_id": "4",
      "name": "Kashiani",
      "bn_name": "কাশিয়ানী"
    },
    {
      "id": "29",
      "district_id": "4",
      "name": "Tungipara",
      "bn_name": "টুঙ্গীপাড়া"
    },
    {
      "id": "30",
      "district_id": "4",
      "name": "Kotalipara",
      "bn_name": "কোটালীপাড়া"
    },
    {
      "id": "31",
      "district_id": "4",
      "name": "Muksudpur",
      "bn_name": "মুকসুদপুর"
    },
    {
      "id": "32",
      "district_id": "5",
      "name": "Kishoreganj Sadar",
      "bn_name": "কিশোরগঞ্জ সদর"
    },
    {
      "id": "33",
      "district_id": "5",
      "name": "Bhairab",
      "bn_name": "ভৈরব"
    },
    {
      "id": "34",
      "district_id": "5",
      "name": "Bajitpur",
      "bn_name": "বাজিতপুর"
    },
    {
      "id": "35",
      "district_id": "5",
      "name": "Austagram",
      "bn_name": "অষ্টগ্রাম"
    },
    {
      "id": "36",
      "district_id": "5",
      "name": "Itna",
      "bn_name": "ইটনা"
    },
    {
      "id": "37",
      "district_id": "5",
      "name": "Karimganj",
      "bn_name": "করিমগঞ্জ"
    },
    {
      "id": "38",
      "district_id": "5",
      "name": "Katiadi",
      "bn_name": "কটিয়াদী"
    },
    {
      "id": "39",
      "district_id": "5",
      "name": "Kuliarchar",
      "bn_name": "কুলিয়ারচর"
    },
    {
      "id": "40",
      "district_id": "5",
      "name": "Mithamain",
      "bn_name": "মিঠামইন"
    },
    {
      "id": "41",
      "district_id": "5",
      "name": "Nikli",
      "bn_name": "নিকলী"
    },
    {
      "id": "42",
      "district_id": "5",
      "name": "Pakundia",
      "bn_name": "পাকুন্দিয়া"
    },
    {
      "id": "43",
      "district_id": "5",
      "name": "Tarail",
      "bn_name": "তাড়াইল"
    },
    {
      "id": "44",
      "district_id": "6",
      "name": "Madaripur Sadar",
      "bn_name": "মাদারীপুর সদর"
    },
    {
      "id": "45",
      "district_id": "6",
      "name": "Kalkini",
      "bn_name": "কালকিনি"
    },
    {
      "id": "46",
      "district_id": "6",
      "name": "Rajoir",
      "bn_name": "রাজৈর"
    },
    {
      "id": "47",
      "district_id": "6",
      "name": "Shibchar",
      "bn_name": "শিবচর"
    },
    {
      "id": "48",
      "district_id": "7",
      "name": "Manikganj Sadar",
      "bn_name": "মানিকগঞ্জ সদর"
    },
    {
      "id": "49",
      "district_id": "7",
      "name": "Singair",
      "bn_name": "সিঙ্গাইর"
    },
    {
      "id": "50",
      "district_id": "7",
      "name": "Shibalaya",
      "bn_name": "শিবালয়"
    },
    {
      "id": "51",
      "district_id": "7",
      "name": "Saturia",
      "bn_name": "সাটুরিয়া"
    },
    {
      "id": "52",
      "district_id": "7",
      "name": "Harirampur",
      "bn_name": "হরিরামপুর"
    },
    {
      "id": "53",
      "district_id": "7",
      "name": "Ghior",
      "bn_name": "ঘিওর"
    },
    {
      "id": "54",
      "district_id": "7",
      "name": "Daulatpur",
      "bn_name": "দৌলতপুর"
    },
    {
      "id": "55",
      "district_id": "8",
      "name": "Munshiganj Sadar",
      "bn_name": "মুন্সিগঞ্জ সদর"
    },
    {
      "id": "56",
      "district_id": "8",
      "name": "Sreenagar",
      "bn_name": "শ্রীনগর"
    },
    {
      "id": "57",
      "district_id": "8",
      "name": "Sirajdikhan",
      "bn_name": "সিরাজদিখান"
    },
    {
      "id": "58",
      "district_id": "8",
      "name": "Lohajang",
      "bn_name": "লোহাজং"
    },
    {
      "id": "59",
      "district_id": "8",
      "name": "Gazaria",
      "bn_name": "গজারিয়া"
    },
    {
      "id": "60",
      "district_id": "8",
      "name": "Tongibari",
      "bn_name": "টঙ্গীবাড়ি"
    },
    {
      "id": "61",
      "district_id": "9",
      "name": "Narayanganj Sadar",
      "bn_name": "নারায়ণগঞ্জ সদর"
    },
    {
      "id": "62",
      "district_id": "9",
      "name": "Araihazar",
      "bn_name": "আড়াইহাজার"
    },
    {
      "id": "63",
      "district_id": "9",
      "name": "Sonargaon",
      "bn_name": "সোনারগাঁও"
    },
    {
      "id": "64",
      "district_id": "9",
      "name": "Bandar",
      "bn_name": "বন্দর"
    },
    {
      "id": "65",
      "district_id": "9",
      "name": "Rupganj",
      "bn_name": "রূপগঞ্জ"
    },
    {
      "id": "66",
      "district_id": "10",
      "name": "Narsingdi Sadar",
      "bn_name": "নরসিংদী সদর"
    },
    {
      "id": "67",
      "district_id": "10",
      "name": "Belabo",
      "bn_name": "বেলাবো"
    },
    {
      "id": "68",
      "district_id": "10",
      "name": "Monohardi",
      "bn_name": "মনোহরদী"
    },
    {
      "id": "69",
      "district_id": "10",
      "name": "Palash",
      "bn_name": "পলাশ"
    },
    {
      "id": "70",
      "district_id": "10",
      "name": "Raipura",
      "bn_name": "রায়পুরা"
    },
    {
      "id": "71",
      "district_id": "10",
      "name": "Shibpur",
      "bn_name": "শিবপুর"
    },
    {
      "id": "72",
      "district_id": "11",
      "name": "Rajbari Sadar",
      "bn_name": "রাজবাড়ী সদর"
    },
    {
      "id": "73",
      "district_id": "11",
      "name": "Goalanda",
      "bn_name": "গোয়ালন্দ"
    },
    {
      "id": "74",
      "district_id": "11",
      "name": "Pangsha",
      "bn_name": "পাংশা"
    },
    {
      "id": "75",
      "district_id": "11",
      "name": "Baliakandi",
      "bn_name": "বালিয়াকান্দি"
    },
    {
      "id": "76",
      "district_id": "11",
      "name": "Kalukhali",
      "bn_name": "কালুখালী"
    },
    {
      "id": "77",
      "district_id": "12",
      "name": "Shariatpur Sadar",
      "bn_name": "শরীয়তপুর সদর"
    },
    {
      "id": "78",
      "district_id": "12",
      "name": "Naria",
      "bn_name": "নড়িয়া"
    },
    {
      "id": "79",
      "district_id": "12",
      "name": "Zajira",
      "bn_name": "জাজিরা"
    },
    {
      "id": "80",
      "district_id": "12",
      "name": "Gosairhat",
      "bn_name": "গোসাইরহাট"
    },
    {
      "id": "81",
      "district_id": "12",
      "name": "Bhedarganj",
      "bn_name": "ভেদরগঞ্জ"
    },
    {
      "id": "82",
      "district_id": "12",
      "name": "Damudya",
      "bn_name": "ডামুড্যা"
    },
    {
      "id": "83",
      "district_id": "13",
      "name": "Tangail Sadar",
      "bn_name": "টাঙ্গাইল সদর"
    },
    {
      "id": "84",
      "district_id": "13",
      "name": "Sakhipur",
      "bn_name": "সখিপুর"
    },
    {
      "id": "85",
      "district_id": "13",
      "name": "Basail",
      "bn_name": "বাসাইল"
    },
    {
      "id": "86",
      "district_id": "13",
      "name": "Madhupur",
      "bn_name": "মধুপুর"
    },
    {
      "id": "87",
      "district_id": "13",
      "name": "Ghatail",
      "bn_name": "ঘাটাইল"
    },
    {
      "id": "88",
      "district_id": "13",
      "name": "Kalihati",
      "bn_name": "কালিহাতী"
    },
    {
      "id": "89",
      "district_id": "13",
      "name": "Nagarpur",
      "bn_name": "নাগরপুর"
    },
    {
      "id": "90",
      "district_id": "13",
      "name": "Mirzapur",
      "bn_name": "মির্জাপুর"
    },
    {
      "id": "91",
      "district_id": "13",
      "name": "Gopalpur",
      "bn_name": "গোপালপুর"
    },
    {
      "id": "92",
      "district_id": "13",
      "name": "Delduar",
      "bn_name": "দেলদুয়ার"
    },
    {
      "id": "93",
      "district_id": "13",
      "name": "Bhuapur",
      "bn_name": "ভুয়াপুর"
    },
    {
      "id": "94",
      "district_id": "13",
      "name": "Dhanbari",
      "bn_name": "ধনবাড়ী"
    },
    {
      "id": "95",
      "district_id": "14",
      "name": "Bandarban Sadar",
      "bn_name": "বান্দরবান সদর"
    },
    {
      "id": "96",
      "district_id": "14",
      "name": "Thanchi",
      "bn_name": "থানচি"
    },
    {
      "id": "97",
      "district_id": "14",
      "name": "Lama",
      "bn_name": "লামা"
    },
    {
      "id": "98",
      "district_id": "14",
      "name": "Naikhongchhari",
      "bn_name": "নাইক্ষ্যংছড়ি"
    },
    {
      "id": "99",
      "district_id": "14",
      "name": "Ali Kadam",
      "bn_name": "আলী কদম"
    },
    {
      "id": "100",
      "district_id": "14",
      "name": "Rowangchhari",
      "bn_name": "রোয়াংছড়ি"
    },
    {
      "id": "101",
      "district_id": "14",
      "name": "Ruma",
      "bn_name": "রুমা"
    },
    {
      "id": "102",
      "district_id": "15",
      "name": "Brahmanbaria Sadar",
      "bn_name": "ব্রাহ্মণবাড়িয়া সদর"
    },
    {
      "id": "103",
      "district_id": "15",
      "name": "Kasba",
      "bn_name": "কসবা"
    },
    {
      "id": "104",
      "district_id": "15",
      "name": "Nabinagar",
      "bn_name": "নবীনগর"
    },
    {
      "id": "105",
      "district_id": "15",
      "name": "Nasirnagar",
      "bn_name": "নাসিরনগর"
    },
    {
      "id": "106",
      "district_id": "15",
      "name": "Sarail",
      "bn_name": "সরাইল"
    },
    {
      "id": "107",
      "district_id": "15",
      "name": "Ashuganj",
      "bn_name": "আশুগঞ্জ"
    },
    {
      "id": "108",
      "district_id": "15",
      "name": "Akhaura",
      "bn_name": "আখাউড়া"
    },
    {
      "id": "109",
      "district_id": "15",
      "name": "Bancharampur",
      "bn_name": "বাঞ্ছারামপুর"
    },
    {
      "id": "110",
      "district_id": "15",
      "name": "Bijoynagar",
      "bn_name": "বিজয়নগর"
    },
    {
      "id": "111",
      "district_id": "16",
      "name": "Chandpur Sadar",
      "bn_name": "চাঁদপুর সদর"
    },
    {
      "id": "112",
      "district_id": "16",
      "name": "Faridganj",
      "bn_name": "ফরিদগঞ্জ"
    },
    {
      "id": "113",
      "district_id": "16",
      "name": "Haimchar",
      "bn_name": "হাইমচর"
    },
    {
      "id": "114",
      "district_id": "16",
      "name": "Haziganj",
      "bn_name": "হাজীগঞ্জ"
    },
    {
      "id": "115",
      "district_id": "16",
      "name": "Kachua",
      "bn_name": "কচুয়া"
    },
    {
      "id": "116",
      "district_id": "16",
      "name": "Matlab Dakshin",
      "bn_name": "মতলব দক্ষিণ"
    },
    {
      "id": "117",
      "district_id": "16",
      "name": "Matlab Uttar",
      "bn_name": "মতলব উত্তর"
    },
    {
      "id": "118",
      "district_id": "16",
      "name": "Shahrasti",
      "bn_name": "শাহরাস্তি"
    },
    {
      "id": "119",
      "district_id": "17",
      "name": "Anwara",
      "bn_name": "আনোয়ারা"
    },
    {
      "id": "120",
      "district_id": "17",
      "name": "Banshkhali",
      "bn_name": "বাঁশখালী"
    },
    {
      "id": "121",
      "district_id": "17",
      "name": "Boalkhali",
      "bn_name": "বোয়ালখালী"
    },
    {
      "id": "122",
      "district_id": "17",
      "name": "Chandanaish",
      "bn_name": "চন্দনাইশ"
    },
    {
      "id": "123",
      "district_id": "17",
      "name": "Fatikchhari",
      "bn_name": "ফটিকছড়ি"
    },
    {
      "id": "124",
      "district_id": "17",
      "name": "Hathazari",
      "bn_name": "হাটহাজারী"
    },
    {
      "id": "125",
      "district_id": "17",
      "name": "Lohagara",
      "bn_name": "লোহাগাড়া"
    },
    {
      "id": "126",
      "district_id": "17",
      "name": "Mirsharai",
      "bn_name": "মীরসরাই"
    },
    {
      "id": "127",
      "district_id": "17",
      "name": "Patiya",
      "bn_name": "পটিয়া"
    },
    {
      "id": "128",
      "district_id": "17",
      "name": "Rangunia",
      "bn_name": "রাঙ্গুনিয়া"
    },
    {
      "id": "129",
      "district_id": "17",
      "name": "Raozan",
      "bn_name": "রাউজান"
    },
    {
      "id": "130",
      "district_id": "17",
      "name": "Sandwip",
      "bn_name": "সন্দ্বীপ"
    },
    {
      "id": "131",
      "district_id": "17",
      "name": "Satkania",
      "bn_name": "সাতকানিয়া"
    },
    {
      "id": "132",
      "district_id": "17",
      "name": "Sitakunda",
      "bn_name": "সীতাকুণ্ড"
    },
    {
      "id": "133",
      "district_id": "17",
      "name": "Panchlaish",
      "bn_name": "পাঁচলাইশ"
    },
    {
      "id": "134",
      "district_id": "17",
      "name": "Double Mooring",
      "bn_name": "ডবলমুরিং"
    },
    {
      "id": "135",
      "district_id": "18",
      "name": "Barura",
      "bn_name": "বরুড়া"
    },
    {
      "id": "136",
      "district_id": "18",
      "name": "Brahmanpara",
      "bn_name": "ব্রাহ্মণপাড়া"
    },
    {
      "id": "137",
      "district_id": "18",
      "name": "Burichang",
      "bn_name": "বুড়িচং"
    },
    {
      "id": "138",
      "district_id": "18",
      "name": "Chandina",
      "bn_name": "চান্দিনা"
    },
    {
      "id": "139",
      "district_id": "18",
      "name": "Chauddagram",
      "bn_name": "চৌদ্দগ্রাম"
    },
    {
      "id": "140",
      "district_id": "18",
      "name": "Daudkandi",
      "bn_name": "দাউদকান্দি"
    },
    {
      "id": "141",
      "district_id": "18",
      "name": "Debidwar",
      "bn_name": "দেবিদ্বার"
    },
    {
      "id": "142",
      "district_id": "18",
      "name": "Homna",
      "bn_name": "হোমনা"
    },
    {
      "id": "143",
      "district_id": "18",
      "name": "Laksam",
      "bn_name": "লাকসাম"
    },
    {
      "id": "144",
      "district_id": "18",
      "name": "Muradnagar",
      "bn_name": "মুরাদনগর"
    },
    {
      "id": "145",
      "district_id": "18",
      "name": "Nangalkot",
      "bn_name": "নাঙ্গলকোট"
    },
    {
      "id": "146",
      "district_id": "18",
      "name": "Cumilla Sadar",
      "bn_name": "কুমিল্লা সদর"
    },
    {
      "id": "147",
      "district_id": "18",
      "name": "Meghna",
      "bn_name": "মেঘনা"
    },
    {
      "id": "148",
      "district_id": "18",
      "name": "Monohargonj",
      "bn_name": "মনোহরগঞ্জ"
    },
    {
      "id": "149",
      "district_id": "18",
      "name": "Sadarsouth",
      "bn_name": "সদর দক্ষিণ"
    },
    {
      "id": "150",
      "district_id": "18",
      "name": "Titas",
      "bn_name": "তিতাস"
    },
    {
      "id": "151",
      "district_id": "18",
      "name": "Burichang",
      "bn_name": "বুড়িচং"
    },
    {
      "id": "152",
      "district_id": "19",
      "name": "Chakaria",
      "bn_name": "চকরিয়া"
    },
    {
      "id": "153",
      "district_id": "19",
      "name": "Cox's Bazar Sadar",
      "bn_name": "কক্সবাজার সদর"
    },
    {
      "id": "154",
      "district_id": "19",
      "name": "Kutubdia",
      "bn_name": "কুতুবদিয়া"
    },
    {
      "id": "155",
      "district_id": "19",
      "name": "Maheshkhali",
      "bn_name": "মহেশখালী"
    },
    {
      "id": "156",
      "district_id": "19",
      "name": "Ramu",
      "bn_name": "রামু"
    },
    {
      "id": "157",
      "district_id": "19",
      "name": "Teknaf",
      "bn_name": "টেকনাফ"
    },
    {
      "id": "158",
      "district_id": "19",
      "name": "Ukhia",
      "bn_name": "উখিয়া"
    },
    {
      "id": "159",
      "district_id": "19",
      "name": "Pekua",
      "bn_name": "পেকুয়া"
    },
    {
      "id": "160",
      "district_id": "20",
      "name": "Chagalnaiya",
      "bn_name": "ছাগলনাইয়া"
    },
    {
      "id": "161",
      "district_id": "20",
      "name": "Feni Sadar",
      "bn_name": "ফেনী সদর"
    },
    {
      "id": "162",
      "district_id": "20",
      "name": "Sonagazi",
      "bn_name": "সোনাগাজী"
    },
    {
      "id": "163",
      "district_id": "20",
      "name": "Fulgazi",
      "bn_name": "ফুলগাজী"
    },
    {
      "id": "164",
      "district_id": "20",
      "name": "Parshuram",
      "bn_name": "পরশুরাম"
    },
    {
      "id": "165",
      "district_id": "20",
      "name": "Daganbhuiyan",
      "bn_name": "দাগনভূঁইয়া"
    },
    {
      "id": "166",
      "district_id": "21",
      "name": "Dighinala",
      "bn_name": "দিঘীনালা"
    },
    {
      "id": "167",
      "district_id": "21",
      "name": "Khagrachhari Sadar",
      "bn_name": "খাগড়াছড়ি সদর"
    },
    {
      "id": "168",
      "district_id": "21",
      "name": "Lakshmichhari",
      "bn_name": "লক্ষ্মীছড়ি"
    },
    {
      "id": "169",
      "district_id": "21",
      "name": "Mahalchhari",
      "bn_name": "মহালছড়ি"
    },
    {
      "id": "170",
      "district_id": "21",
      "name": "Manikchhari",
      "bn_name": "মানিকছড়ি"
    },
    {
      "id": "171",
      "district_id": "21",
      "name": "Matiranga",
      "bn_name": "মাটিরাঙ্গা"
    },
    {
      "id": "172",
      "district_id": "21",
      "name": "Panchhari",
      "bn_name": "পানছড়ি"
    },
    {
      "id": "173",
      "district_id": "21",
      "name": "Ramgarh",
      "bn_name": "রামগড়"
    },
    {
      "id": "174",
      "district_id": "22",
      "name": "Lakshmipur Sadar",
      "bn_name": "লক্ষ্মীপুর সদর"
    },
    {
      "id": "175",
      "district_id": "22",
      "name": "Raipur",
      "bn_name": "রায়পুর"
    },
    {
      "id": "176",
      "district_id": "22",
      "name": "Ramganj",
      "bn_name": "রামগঞ্জ"
    },
    {
      "id": "177",
      "district_id": "22",
      "name": "Ramgati",
      "bn_name": "রামগতি"
    },
    {
      "id": "178",
      "district_id": "22",
      "name": "Kamalnagar",
      "bn_name": "কমলনগর"
    },
    {
      "id": "179",
      "district_id": "23",
      "name": "Noakhali Sadar",
      "bn_name": "নোয়াখালী সদর"
    },
    {
      "id": "180",
      "district_id": "23",
      "name": "Begumganj",
      "bn_name": "বেগমগঞ্জ"
    },
    {
      "id": "181",
      "district_id": "23",
      "name": "Chatkhil",
      "bn_name": "চাটখিল"
    },
    {
      "id": "182",
      "district_id": "23",
      "name": "Companiganj",
      "bn_name": "কোম্পানীগঞ্জ"
    },
    {
      "id": "183",
      "district_id": "23",
      "name": "Hatiya",
      "bn_name": "হাতিয়া"
    },
    {
      "id": "184",
      "district_id": "23",
      "name": "Senbagh",
      "bn_name": "সেনবাগ"
    },
    {
      "id": "185",
      "district_id": "23",
      "name": "Sonaimuri",
      "bn_name": "সোনাইমুড়ী"
    },
    {
      "id": "186",
      "district_id": "23",
      "name": "Subarnachar",
      "bn_name": "সুবর্ণচর"
    },
    {
      "id": "187",
      "district_id": "23",
      "name": "Kabirhat",
      "bn_name": "কবিরহাট"
    },
    {
      "id": "188",
      "district_id": "24",
      "name": "Bagaichhari",
      "bn_name": "বাঘাইছড়ি"
    },
    {
      "id": "189",
      "district_id": "24",
      "name": "Barkal",
      "bn_name": "বরকল"
    },
    {
      "id": "190",
      "district_id": "24",
      "name": "Kawkhali",
      "bn_name": "কাউখালী"
    },
    {
      "id": "191",
      "district_id": "24",
      "name": "Belaichhari",
      "bn_name": "বিলাইছড়ি"
    },
    {
      "id": "192",
      "district_id": "24",
      "name": "Kaptai",
      "bn_name": "কাপ্তাই"
    },
    {
      "id": "193",
      "district_id": "24",
      "name": "Juraichhari",
      "bn_name": "জুরাছড়ি"
    },
    {
      "id": "194",
      "district_id": "24",
      "name": "Langadu",
      "bn_name": "লাঙ্গাডু"
    },
    {
      "id": "195",
      "district_id": "24",
      "name": "Naniyachar",
      "bn_name": "নানিয়ারচর"
    },
    {
      "id": "196",
      "district_id": "24",
      "name": "Rajasthali",
      "bn_name": "রাজস্থলী"
    },
    {
      "id": "197",
      "district_id": "24",
      "name": "Rangamati Sadar",
      "bn_name": "রাঙ্গামাটি সদর"
    },
    {
      "id": "198",
      "district_id": "25",
      "name": "Adamdighi",
      "bn_name": "আদমদিঘী"
    },
    {
      "id": "199",
      "district_id": "25",
      "name": "Bogura Sadar",
      "bn_name": "বগুড়া সদর"
    },
    {
      "id": "200",
      "district_id": "25",
      "name": "Sherpur",
      "bn_name": "শেরপুর"
    },
    {
      "id": "201",
      "district_id": "25",
      "name": "Dhunat",
      "bn_name": "ধুনট"
    },
    {
      "id": "202",
      "district_id": "25",
      "name": "Dhupchanchia",
      "bn_name": "দুপচাঁচিয়া"
    },
    {
      "id": "203",
      "district_id": "25",
      "name": "Gabtali",
      "bn_name": "গাবতলী"
    },
    {
      "id": "204",
      "district_id": "25",
      "name": "Kahaloo",
      "bn_name": "কাহালু"
    },
    {
      "id": "205",
      "district_id": "25",
      "name": "Nandigram",
      "bn_name": "নন্দিগ্রাম"
    },
    {
      "id": "206",
      "district_id": "25",
      "name": "Sahajanpur",
      "bn_name": "সহজানপুর"
    },
    {
      "id": "207",
      "district_id": "25",
      "name": "Sariakandi",
      "bn_name": "সারিয়াকান্দি"
    },
    {
      "id": "208",
      "district_id": "25",
      "name": "Shibganj",
      "bn_name": "শিবগঞ্জ"
    },
    {
      "id": "209",
      "district_id": "25",
      "name": "Sonatola",
      "bn_name": "সোনাতলা"
    },
    {
      "id": "210",
      "district_id": "26",
      "name": "Joypurhat Sadar",
      "bn_name": "জয়পুরহাট সদর"
    },
    {
      "id": "211",
      "district_id": "26",
      "name": "Akkelpur",
      "bn_name": "আক্কেলপুর"
    },
    {
      "id": "212",
      "district_id": "26",
      "name": "Kalai",
      "bn_name": "কালাই"
    },
    {
      "id": "213",
      "district_id": "26",
      "name": "Khetlal",
      "bn_name": "ক্ষেতলাল"
    },
    {
      "id": "214",
      "district_id": "26",
      "name": "Panchbibi",
      "bn_name": "পাঁচবিবি"
    },
    {
      "id": "215",
      "district_id": "27",
      "name": "Naogaon Sadar",
      "bn_name": "নওগাঁ সদর"
    },
    {
      "id": "216",
      "district_id": "27",
      "name": "Mohadevpur",
      "bn_name": "মহাদেবপুর"
    },
    {
      "id": "217",
      "district_id": "27",
      "name": "Manda",
      "bn_name": "মান্দা"
    },
    {
      "id": "218",
      "district_id": "27",
      "name": "Niamatpur",
      "bn_name": "নিয়ামতপুর"
    },
    {
      "id": "219",
      "district_id": "27",
      "name": "Atrai",
      "bn_name": "আত্রাই"
    },
    {
      "id": "220",
      "district_id": "27",
      "name": "Raninagar",
      "bn_name": "রাণীনগর"
    },
    {
      "id": "221",
      "district_id": "27",
      "name": "Patnitala",
      "bn_name": "পত্নীতলা"
    },
    {
      "id": "222",
      "district_id": "27",
      "name": "Dhamoirhat",
      "bn_name": "ধামইরহাট"
    },
    {
      "id": "223",
      "district_id": "27",
      "name": "Sapahar",
      "bn_name": "সাপাহার"
    },
    {
      "id": "224",
      "district_id": "27",
      "name": "Porsha",
      "bn_name": "পোরশা"
    },
    {
      "id": "225",
      "district_id": "27",
      "name": "Badalgachhi",
      "bn_name": "বদলগাছী"
    },
    {
      "id": "226",
      "district_id": "28",
      "name": "Natore Sadar",
      "bn_name": "নাটোর সদর"
    },
    {
      "id": "227",
      "district_id": "28",
      "name": "Baraigram",
      "bn_name": "বড়াইগ্রাম"
    },
    {
      "id": "228",
      "district_id": "28",
      "name": "Bagatipara",
      "bn_name": "বাগাতিপাড়া"
    },
    {
      "id": "229",
      "district_id": "28",
      "name": "Lalpur",
      "bn_name": "লালপুর"
    },
    {
      "id": "230",
      "district_id": "28",
      "name": "Gurudaspur",
      "bn_name": "গুরুদাসপুর"
    },
    {
      "id": "231",
      "district_id": "28",
      "name": "Naldanga",
      "bn_name": "নলডাঙ্গা"
    },
    {
      "id": "232",
      "district_id": "28",
      "name": "Singra",
      "bn_name": "সিংড়া"
    },
    {
      "id": "233",
      "district_id": "29",
      "name": "Bholahat",
      "bn_name": "ভোলাহাট"
    },
    {
      "id": "234",
      "district_id": "29",
      "name": "Gomastapur",
      "bn_name": "গোমস্তাপুর"
    },
    {
      "id": "235",
      "district_id": "29",
      "name": "Nachole",
      "bn_name": "নাচোল"
    },
    {
      "id": "236",
      "district_id": "29",
      "name": "Chapainawabganj Sadar",
      "bn_name": "চাঁপাইনবাবগঞ্জ সদর"
    },
    {
      "id": "237",
      "district_id": "29",
      "name": "Shibganj",
      "bn_name": "শিবগঞ্জ"
    },
    {
      "id": "238",
      "district_id": "30",
      "name": "Atgharia",
      "bn_name": "আটঘরিয়া"
    },
    {
      "id": "239",
      "district_id": "30",
      "name": "Bera",
      "bn_name": "বেড়া"
    },
    {
      "id": "240",
      "district_id": "30",
      "name": "Bhangura",
      "bn_name": "ভাঙ্গুড়া"
    },
    {
      "id": "241",
      "district_id": "30",
      "name": "Chatmohar",
      "bn_name": "চাটমোহর"
    },
    {
      "id": "242",
      "district_id": "30",
      "name": "Faridpur",
      "bn_name": "ফরিদপুর"
    },
    {
      "id": "243",
      "district_id": "30",
      "name": "Ishwardi",
      "bn_name": "ঈশ্বরদী"
    },
    {
      "id": "244",
      "district_id": "30",
      "name": "Pabna Sadar",
      "bn_name": "পাবনা সদর"
    },
    {
      "id": "245",
      "district_id": "30",
      "name": "Santhia",
      "bn_name": "সাঁথিয়া"
    },
    {
      "id": "246",
      "district_id": "30",
      "name": "Sujanagar",
      "bn_name": "সুজানগর"
    },
    {
      "id": "247",
      "district_id": "31",
      "name": "Bagha",
      "bn_name": "বাঘা"
    },
    {
      "id": "248",
      "district_id": "31",
      "name": "Bagmara",
      "bn_name": "বাগমারা"
    },
    {
      "id": "249",
      "district_id": "31",
      "name": "Charghat",
      "bn_name": "চারঘাট"
    },
    {
      "id": "250",
      "district_id": "31",
      "name": "Durgapur",
      "bn_name": "দুর্গাপুর"
    },
    {
      "id": "251",
      "district_id": "31",
      "name": "Godagari",
      "bn_name": "গোদাগাড়ী"
    },
    {
      "id": "252",
      "district_id": "31",
      "name": "Mohanpur",
      "bn_name": "মোহনপুর"
    },
    {
      "id": "253",
      "district_id": "31",
      "name": "Paba",
      "bn_name": "পবা"
    },
    {
      "id": "254",
      "district_id": "31",
      "name": "Puthia",
      "bn_name": "পুঠিয়া"
    },
    {
      "id": "255",
      "district_id": "31",
      "name": "Tanore",
      "bn_name": "তানোর"
    },
    {
      "id": "256",
      "district_id": "31",
      "name": "Rajshahi Sadar",
      "bn_name": "রাজশাহী সদর"
    },
    {
      "id": "257",
      "district_id": "32",
      "name": "Sirajganj Sadar",
      "bn_name": "সিরাজগঞ্জ সদর"
    },
    {
      "id": "258",
      "district_id": "32",
      "name": "Belkuchi",
      "bn_name": "বেলকুচি"
    },
    {
      "id": "259",
      "district_id": "32",
      "name": "Chauhali",
      "bn_name": "চৌহালি"
    },
    {
      "id": "260",
      "district_id": "32",
      "name": "Kamarkhanda",
      "bn_name": "কামারখান্দা"
    },
    {
      "id": "261",
      "district_id": "32",
      "name": "Kazipur",
      "bn_name": "কাজিপুর"
    },
    {
      "id": "262",
      "district_id": "32",
      "name": "Raiganj",
      "bn_name": "রায়গঞ্জ"
    },
    {
      "id": "263",
      "district_id": "32",
      "name": "Shahjadpur",
      "bn_name": "শাহজাদপুর"
    },
    {
      "id": "264",
      "district_id": "32",
      "name": "Tarash",
      "bn_name": "তাড়াশ"
    },
    {
      "id": "265",
      "district_id": "32",
      "name": "Ullahpara",
      "bn_name": "উল্লাপাড়া"
    },
    {
      "id": "266",
      "district_id": "33",
      "name": "Bagerhat Sadar",
      "bn_name": "বাগেরহাট সদর"
    },
    {
      "id": "267",
      "district_id": "33",
      "name": "Chitalmari",
      "bn_name": "চিতলমারী"
    },
    {
      "id": "268",
      "district_id": "33",
      "name": "Fakirhat",
      "bn_name": "ফকিরহাট"
    },
    {
      "id": "269",
      "district_id": "33",
      "name": "Kachua",
      "bn_name": "কচুয়া"
    },
    {
      "id": "270",
      "district_id": "33",
      "name": "Mollahat",
      "bn_name": "মোল্লাহাট"
    },
    {
      "id": "271",
      "district_id": "33",
      "name": "Mongla",
      "bn_name": "মোংলা"
    },
    {
      "id": "272",
      "district_id": "33",
      "name": "Morrelganj",
      "bn_name": "মোড়েলগঞ্জ"
    },
    {
      "id": "273",
      "district_id": "33",
      "name": "Rampal",
      "bn_name": "রামপাল"
    },
    {
      "id": "274",
      "district_id": "33",
      "name": "Sarankhola",
      "bn_name": "শরণখোলা"
    },
    {
      "id": "275",
      "district_id": "34",
      "name": "Alamdanga",
      "bn_name": "আলমডাঙ্গা"
    },
    {
      "id": "276",
      "district_id": "34",
      "name": "Chuadanga Sadar",
      "bn_name": "চুয়াডাঙ্গা সদর"
    },
    {
      "id": "277",
      "district_id": "34",
      "name": "Damurhuda",
      "bn_name": "দামুড়হুদা"
    },
    {
      "id": "278",
      "district_id": "34",
      "name": "Jibannagar",
      "bn_name": "জীবননগর"
    },
    {
      "id": "279",
      "district_id": "35",
      "name": "Abhaynagar",
      "bn_name": "অভয়নগর"
    },
    {
      "id": "280",
      "district_id": "35",
      "name": "Bagherpara",
      "bn_name": "বাঘারপাড়া"
    },
    {
      "id": "281",
      "district_id": "35",
      "name": "Chaugachha",
      "bn_name": "চৌগাছা"
    },
    {
      "id": "282",
      "district_id": "35",
      "name": "Jhikargachha",
      "bn_name": "ঝিকরগাছা"
    },
    {
      "id": "283",
      "district_id": "35",
      "name": "Keshabpur",
      "bn_name": "কেশবপুর"
    },
    {
      "id": "284",
      "district_id": "35",
      "name": "Jashore Sadar",
      "bn_name": "যশোর সদর"
    },
    {
      "id": "285",
      "district_id": "35",
      "name": "Manirampur",
      "bn_name": "মণিরামপুর"
    },
    {
      "id": "286",
      "district_id": "35",
      "name": "Sharsha",
      "bn_name": "শার্শা"
    },
    {
      "id": "287",
      "district_id": "36",
      "name": "Harinakunda",
      "bn_name": "হরিণাকুন্ডু"
    },
    {
      "id": "288",
      "district_id": "36",
      "name": "Jhenaidah Sadar",
      "bn_name": "ঝিনাইদহ সদর"
    },
    {
      "id": "289",
      "district_id": "36",
      "name": "Kaliganj",
      "bn_name": "কালীগঞ্জ"
    },
    {
      "id": "290",
      "district_id": "36",
      "name": "Kotchandpur",
      "bn_name": "কোটচাঁদপুর"
    },
    {
      "id": "291",
      "district_id": "36",
      "name": "Maheshpur",
      "bn_name": "মহেশপুর"
    },
    {
      "id": "292",
      "district_id": "36",
      "name": "Shailkupa",
      "bn_name": "শৈলকুপা"
    },
    {
      "id": "293",
      "district_id": "37",
      "name": "Batiaghata",
      "bn_name": "বটিয়াঘাটা"
    },
    {
      "id": "294",
      "district_id": "37",
      "name": "Dacope",
      "bn_name": "ডাকোপ"
    },
    {
      "id": "295",
      "district_id": "37",
      "name": "Dumuria",
      "bn_name": "ডুমুরিয়া"
    },
    {
      "id": "296",
      "district_id": "37",
      "name": "Dighalia",
      "bn_name": "দিঘলিয়া"
    },
    {
      "id": "297",
      "district_id": "37",
      "name": "Koyra",
      "bn_name": "কয়রা"
    },
    {
      "id": "298",
      "district_id": "37",
      "name": "Paikgachha",
      "bn_name": "পাইকগাছা"
    },
    {
      "id": "299",
      "district_id": "37",
      "name": "Phultala",
      "bn_name": "ফুলতলা"
    },
    {
      "id": "300",
      "district_id": "37",
      "name": "Rupsa",
      "bn_name": "রূপসা"
    },
    {
      "id": "301",
      "district_id": "37",
      "name": "Terokhada",
      "bn_name": "তেরখাদা"
    },
    {
      "id": "302",
      "district_id": "37",
      "name": "Khulna Sadar",
      "bn_name": "খুলনা সদর"
    },
    {
      "id": "303",
      "district_id": "38",
      "name": "Bheramara",
      "bn_name": "ভেড়ামারা"
    },
    {
      "id": "304",
      "district_id": "38",
      "name": "Daulatpur",
      "bn_name": "দৌলতপুর"
    },
    {
      "id": "305",
      "district_id": "38",
      "name": "Khoksa",
      "bn_name": "খোকসা"
    },
    {
      "id": "306",
      "district_id": "38",
      "name": "Kumarkhali",
      "bn_name": "কুমারখালী"
    },
    {
      "id": "307",
      "district_id": "38",
      "name": "Kushtia Sadar",
      "bn_name": "কুষ্টিয়া সদর"
    },
    {
      "id": "308",
      "district_id": "38",
      "name": "Mirpur",
      "bn_name": "মিরপুর"
    },
    {
      "id": "309",
      "district_id": "39",
      "name": "Magura Sadar",
      "bn_name": "মাগুরা সদর"
    },
    {
      "id": "310",
      "district_id": "39",
      "name": "Mohammadpur",
      "bn_name": "মোহাম্মদপুর"
    },
    {
      "id": "311",
      "district_id": "39",
      "name": "Shalikha",
      "bn_name": "শালিখা"
    },
    {
      "id": "312",
      "district_id": "39",
      "name": "Sreepur",
      "bn_name": "শ্রীপুর"
    },
    {
      "id": "313",
      "district_id": "40",
      "name": "Gangni",
      "bn_name": "গাংনী"
    },
    {
      "id": "314",
      "district_id": "40",
      "name": "Meherpur Sadar",
      "bn_name": "মেহেরপুর সদর"
    },
    {
      "id": "315",
      "district_id": "40",
      "name": "Mujib Nagar",
      "bn_name": "মুজিবনগর"
    },
    {
      "id": "316",
      "district_id": "41",
      "name": "Kalia",
      "bn_name": "কালিয়া"
    },
    {
      "id": "317",
      "district_id": "41",
      "name": "Lohagara",
      "bn_name": "লোহাগাড়া"
    },
    {
      "id": "318",
      "district_id": "41",
      "name": "Narail Sadar",
      "bn_name": "নড়াইল সদর"
    },
    {
      "id": "319",
      "district_id": "42",
      "name": "Assasuni",
      "bn_name": "আশাশুনি"
    },
    {
      "id": "320",
      "district_id": "42",
      "name": "Debhata",
      "bn_name": "দেবহাটা"
    },
    {
      "id": "321",
      "district_id": "42",
      "name": "Kalaroa",
      "bn_name": "কলারোয়া"
    },
    {
      "id": "322",
      "district_id": "42",
      "name": "Kaliganj",
      "bn_name": "কালীগঞ্জ"
    },
    {
      "id": "323",
      "district_id": "42",
      "name": "Satkhira Sadar",
      "bn_name": "সাতক্ষীরা সদর"
    },
    {
      "id": "324",
      "district_id": "42",
      "name": "Shyamnagar",
      "bn_name": "শ্যামনগর"
    },
    {
      "id": "325",
      "district_id": "42",
      "name": "Tala",
      "bn_name": "তালা"
    },
    {
      "id": "326",
      "district_id": "43",
      "name": "Amtali",
      "bn_name": "আমতলী"
    },
    {
      "id": "327",
      "district_id": "43",
      "name": "Bamna",
      "bn_name": "বামনা"
    },
    {
      "id": "328",
      "district_id": "43",
      "name": "Barguna Sadar",
      "bn_name": "বরগুনা সদর"
    },
    {
      "id": "329",
      "district_id": "43",
      "name": "Betagi",
      "bn_name": "বেতাগী"
    },
    {
      "id": "330",
      "district_id": "43",
      "name": "Patharghata",
      "bn_name": "পাথরঘাটা"
    },
    {
      "id": "331",
      "district_id": "43",
      "name": "Taltali",
      "bn_name": "তালতলী"
    },
    {
      "id": "332",
      "district_id": "44",
      "name": "Agailjhara",
      "bn_name": "আগৈলঝাড়া"
    },
    {
      "id": "333",
      "district_id": "44",
      "name": "Babuganj",
      "bn_name": "বাবুগঞ্জ"
    },
    {
      "id": "334",
      "district_id": "44",
      "name": "Bakerganj",
      "bn_name": "বাকেরগঞ্জ"
    },
    {
      "id": "335",
      "district_id": "44",
      "name": "Banaripara",
      "bn_name": "বানারীপাড়া"
    },
    {
      "id": "336",
      "district_id": "44",
      "name": "Barishal Sadar",
      "bn_name": "বরিশাল সদর"
    },
    {
      "id": "337",
      "district_id": "44",
      "name": "Gournadi",
      "bn_name": "গৌরনদী"
    },
    {
      "id": "338",
      "district_id": "44",
      "name": "Hizla",
      "bn_name": "হিজলা"
    },
    {
      "id": "339",
      "district_id": "44",
      "name": "Mehendiganj",
      "bn_name": "মেহেন্দিগঞ্জ"
    },
    {
      "id": "340",
      "district_id": "44",
      "name": "Muladi",
      "bn_name": "মুলাদী"
    },
    {
      "id": "341",
      "district_id": "44",
      "name": "Wazirpur",
      "bn_name": "ওয়াজিরপুর"
    },
    {
      "id": "342",
      "district_id": "45",
      "name": "Bhola Sadar",
      "bn_name": "ভোলা সদর"
    },
    {
      "id": "343",
      "district_id": "45",
      "name": "Burhanuddin",
      "bn_name": "বুরহানউদ্দিন"
    },
    {
      "id": "344",
      "district_id": "45",
      "name": "Charfasson",
      "bn_name": "চরফ্যাশন"
    },
    {
      "id": "345",
      "district_id": "45",
      "name": "Daulatkhan",
      "bn_name": "দৌলতখান"
    },
    {
      "id": "346",
      "district_id": "45",
      "name": "Lalmohan",
      "bn_name": "লালমোহন"
    },
    {
      "id": "347",
      "district_id": "45",
      "name": "Manpura",
      "bn_name": "মনপুরা"
    },
    {
      "id": "348",
      "district_id": "45",
      "name": "Tazumuddin",
      "bn_name": "তজুমদ্দিন"
    },
    {
      "id": "349",
      "district_id": "46",
      "name": "Jhalokati Sadar",
      "bn_name": "ঝালকাঠি সদর"
    },
    {
      "id": "350",
      "district_id": "46",
      "name": "Kathalia",
      "bn_name": "কাঠালিয়া"
    },
    {
      "id": "351",
      "district_id": "46",
      "name": "Nalchity",
      "bn_name": "নলছিটি"
    },
    {
      "id": "352",
      "district_id": "46",
      "name": "Rajapur",
      "bn_name": "রাজাপুর"
    },
    {
      "id": "353",
      "district_id": "47",
      "name": "Bauphal",
      "bn_name": "বাউফল"
    },
    {
      "id": "354",
      "district_id": "47",
      "name": "Dashmina",
      "bn_name": "দশমিনা"
    },
    {
      "id": "355",
      "district_id": "47",
      "name": "Galachipa",
      "bn_name": "গলাচিপা"
    },
    {
      "id": "356",
      "district_id": "47",
      "name": "Kalapara",
      "bn_name": "কলাপাড়া"
    },
    {
      "id": "357",
      "district_id": "47",
      "name": "Mirzaganj",
      "bn_name": "মির্জাগঞ্জ"
    },
    {
      "id": "358",
      "district_id": "47",
      "name": "Patuakhali Sadar",
      "bn_name": "পটুয়াখালী সদর"
    },
    {
      "id": "359",
      "district_id": "47",
      "name": "Dumki",
      "bn_name": "ডুমকি"
    },
    {
      "id": "360",
      "district_id": "47",
      "name": "Rangabali",
      "bn_name": "রাঙ্গাবালী"
    },
    {
      "id": "361",
      "district_id": "48",
      "name": "Bhandaria",
      "bn_name": "ভান্ডারিয়া"
    },
    {
      "id": "362",
      "district_id": "48",
      "name": "Kawkhali",
      "bn_name": "কাউখালী"
    },
    {
      "id": "363",
      "district_id": "48",
      "name": "Mathbaria",
      "bn_name": "মাঠবাড়ীয়া"
    },
    {
      "id": "364",
      "district_id": "48",
      "name": "Nazirpur",
      "bn_name": "নাজিরপুর"
    },
    {
      "id": "365",
      "district_id": "48",
      "name": "Nesarabad",
      "bn_name": "নেছারাবাদ"
    },
    {
      "id": "366",
      "district_id": "48",
      "name": "Pirojpur Sadar",
      "bn_name": "পিরোজপুর সদর"
    },
    {
      "id": "367",
      "district_id": "48",
      "name": "Zianagar",
      "bn_name": "জিয়ানগর"
    },
    {
      "id": "368",
      "district_id": "49",
      "name": "Ajmiriganj",
      "bn_name": "আজমিরিগঞ্জ"
    },
    {
      "id": "369",
      "district_id": "49",
      "name": "Bahubal",
      "bn_name": "বাহুবল"
    },
    {
      "id": "370",
      "district_id": "49",
      "name": "Baniachong",
      "bn_name": "বানিয়াচং"
    },
    {
      "id": "371",
      "district_id": "49",
      "name": "Chunarughat",
      "bn_name": "চুনারুঘাট"
    },
    {
      "id": "372",
      "district_id": "49",
      "name": "Habiganj Sadar",
      "bn_name": "হবিগঞ্জ সদর"
    },
    {
      "id": "373",
      "district_id": "49",
      "name": "Lakhai",
      "bn_name": "লাক্ষাই"
    },
    {
      "id": "374",
      "district_id": "49",
      "name": "Madhabpur",
      "bn_name": "মাধবপুর"
    },
    {
      "id": "375",
      "district_id": "49",
      "name": "Nabiganj",
      "bn_name": "নবীগঞ্জ"
    },
    {
      "id": "376",
      "district_id": "49",
      "name": "Shaistagonj",
      "bn_name": "শায়েস্তাগঞ্জ"
    },
    {
      "id": "377",
      "district_id": "50",
      "name": "Barlekha",
      "bn_name": "বড়লেখা"
    },
    {
      "id": "378",
      "district_id": "50",
      "name": "Juri",
      "bn_name": "জুড়ী"
    },
    {
      "id": "379",
      "district_id": "50",
      "name": "Kamalganj",
      "bn_name": "কামালগঞ্জ"
    },
    {
      "id": "380",
      "district_id": "50",
      "name": "Kulaura",
      "bn_name": "কুলাউড়া"
    },
    {
      "id": "381",
      "district_id": "50",
      "name": "Moulvibazar Sadar",
      "bn_name": "মৌলভীবাজার সদর"
    },
    {
      "id": "382",
      "district_id": "50",
      "name": "Rajnagar",
      "bn_name": "রাজনগর"
    },
    {
      "id": "383",
      "district_id": "50",
      "name": "Sreemangal",
      "bn_name": "শ্রীমঙ্গল"
    },
    {
      "id": "384",
      "district_id": "51",
      "name": "Bishwamvarpur",
      "bn_name": "বিশ্বম্ভরপুর"
    },
    {
      "id": "385",
      "district_id": "51",
      "name": "Chhatak",
      "bn_name": "ছাতক"
    },
    {
      "id": "386",
      "district_id": "51",
      "name": "Derai",
      "bn_name": "দিরাই"
    },
    {
      "id": "387",
      "district_id": "51",
      "name": "Dharamapasha",
      "bn_name": "ধর্মপাশা"
    },
    {
      "id": "388",
      "district_id": "51",
      "name": "Dowarabazar",
      "bn_name": "দোয়ারাবাজার"
    },
    {
      "id": "389",
      "district_id": "51",
      "name": "Jagannathpur",
      "bn_name": "জগন্নাথপুর"
    },
    {
      "id": "390",
      "district_id": "51",
      "name": "Jamalganj",
      "bn_name": "জামালগঞ্জ"
    },
    {
      "id": "391",
      "district_id": "51",
      "name": "Sulla",
      "bn_name": "সুল্লা"
    },
    {
      "id": "392",
      "district_id": "51",
      "name": "Sunamganj Sadar",
      "bn_name": "সুনামগঞ্জ সদর"
    },
    {
      "id": "393",
      "district_id": "51",
      "name": "Tahirpur",
      "bn_name": "তাহিরপুর"
    },
    {
      "id": "394",
      "district_id": "52",
      "name": "Balaganj",
      "bn_name": "বালাগঞ্জ"
    },
    {
      "id": "395",
      "district_id": "52",
      "name": "Beanibazar",
      "bn_name": "বিয়ানীবাজার"
    },
    {
      "id": "396",
      "district_id": "52",
      "name": "Bishwanath",
      "bn_name": "বিশ্বনাথ"
    },
    {
      "id": "397",
      "district_id": "52",
      "name": "Companiganj",
      "bn_name": "কোম্পানীগঞ্জ"
    },
    {
      "id": "398",
      "district_id": "52",
      "name": "Dakshin Surma",
      "bn_name": "দক্ষিণ সুরমা"
    },
    {
      "id": "399",
      "district_id": "52",
      "name": "Fenchuganj",
      "bn_name": "ফেঞ্চুগঞ্জ"
    },
    {
      "id": "400",
      "district_id": "52",
      "name": "Golapganj",
      "bn_name": "গোলাপগঞ্জ"
    },
    {
      "id": "401",
      "district_id": "52",
      "name": "Gowainghat",
      "bn_name": "গোয়াইনঘাট"
    },
    {
      "id": "402",
      "district_id": "52",
      "name": "Jaintiapur",
      "bn_name": "জৈন্তাপুর"
    },
    {
      "id": "403",
      "district_id": "52",
      "name": "Kanaighat",
      "bn_name": "কানাইঘাট"
    },
    {
      "id": "404",
      "district_id": "52",
      "name": "Sylhet Sadar",
      "bn_name": "সিলেট সদর"
    },
    {
      "id": "405",
      "district_id": "52",
      "name": "Zakiganj",
      "bn_name": "জকিগঞ্জ"
    },
    {
      "id": "406",
      "district_id": "53",
      "name": "Birampur",
      "bn_name": "বিরামপুর"
    },
    {
      "id": "407",
      "district_id": "53",
      "name": "Birganj",
      "bn_name": "বীরগঞ্জ"
    },
    {
      "id": "408",
      "district_id": "53",
      "name": "Biral",
      "bn_name": "বিরল"
    },
    {
      "id": "409",
      "district_id": "53",
      "name": "Bochaganj",
      "bn_name": "বোচাগঞ্জ"
    },
    {
      "id": "410",
      "district_id": "53",
      "name": "Chirirbandar",
      "bn_name": "চিরিরবন্দর"
    },
    {
      "id": "411",
      "district_id": "53",
      "name": "Phulbari",
      "bn_name": "ফুলবাড়ী"
    },
    {
      "id": "412",
      "district_id": "53",
      "name": "Ghoraghat",
      "bn_name": "ঘোড়াঘাট"
    },
    {
      "id": "413",
      "district_id": "53",
      "name": "Hakimpur",
      "bn_name": "হাকিমপুর"
    },
    {
      "id": "414",
      "district_id": "53",
      "name": "Kaharole",
      "bn_name": "কাহারোল"
    },
    {
      "id": "415",
      "district_id": "53",
      "name": "Khansama",
      "bn_name": "খানসামা"
    },
    {
      "id": "416",
      "district_id": "53",
      "name": "Dinajpur Sadar",
      "bn_name": "দিনাজপুর সদর"
    },
    {
      "id": "417",
      "district_id": "53",
      "name": "Nawabganj",
      "bn_name": "নবাবগঞ্জ"
    },
    {
      "id": "418",
      "district_id": "53",
      "name": "Parbatipur",
      "bn_name": "পার্বতীপুর"
    },
    {
      "id": "419",
      "district_id": "54",
      "name": "Fulchhari",
      "bn_name": "ফুলছড়ি"
    },
    {
      "id": "420",
      "district_id": "54",
      "name": "Gaibandha Sadar",
      "bn_name": "গাইবান্ধা সদর"
    },
    {
      "id": "421",
      "district_id": "54",
      "name": "Gobindaganj",
      "bn_name": "গোবিন্দগঞ্জ"
    },
    {
      "id": "422",
      "district_id": "54",
      "name": "Palashbari",
      "bn_name": "পলাশবাড়ী"
    },
    {
      "id": "423",
      "district_id": "54",
      "name": "Sadullapur",
      "bn_name": "সাদুল্লাপুর"
    },
    {
      "id": "424",
      "district_id": "54",
      "name": "Saghata",
      "bn_name": "সাঘাটা"
    },
    {
      "id": "425",
      "district_id": "54",
      "name": "Sundarganj",
      "bn_name": "সুন্দরগঞ্জ"
    },
    {
      "id": "426",
      "district_id": "55",
      "name": "Bhurungamari",
      "bn_name": "ভুরুঙ্গামারী"
    },
    {
      "id": "427",
      "district_id": "55",
      "name": "Char Rajibpur",
      "bn_name": "চর রাজিবপুর"
    },
    {
      "id": "428",
      "district_id": "55",
      "name": "Chilmari",
      "bn_name": "চিলমারী"
    },
    {
      "id": "429",
      "district_id": "55",
      "name": "Phulbari",
      "bn_name": "ফুলবাড়ী"
    },
    {
      "id": "430",
      "district_id": "55",
      "name": "Kurigram Sadar",
      "bn_name": "কুড়িগ্রাম সদর"
    },
    {
      "id": "431",
      "district_id": "55",
      "name": "Nageshwari",
      "bn_name": "নাগেশ্বরী"
    },
    {
      "id": "432",
      "district_id": "55",
      "name": "Rajarhat",
      "bn_name": "রাজারহাট"
    },
    {
      "id": "433",
      "district_id": "55",
      "name": "Raomari",
      "bn_name": "রৌমারী"
    },
    {
      "id": "434",
      "district_id": "55",
      "name": "Ulipur",
      "bn_name": "উলিপুর"
    },
    {
      "id": "435",
      "district_id": "56",
      "name": "Aditmari",
      "bn_name": "আদিতমারী"
    },
    {
      "id": "436",
      "district_id": "56",
      "name": "Hatibandha",
      "bn_name": "হাতীবান্ধা"
    },
    {
      "id": "437",
      "district_id": "56",
      "name": "Kaliganj",
      "bn_name": "কালীগঞ্জ"
    },
    {
      "id": "438",
      "district_id": "56",
      "name": "Lalmonirhat Sadar",
      "bn_name": "লালমনিরহাট সদর"
    },
    {
      "id": "439",
      "district_id": "56",
      "name": "Patgram",
      "bn_name": "পাটগ্রাম"
    },
    {
      "id": "440",
      "district_id": "57",
      "name": "Dimla",
      "bn_name": "ডিমলা"
    },
    {
      "id": "441",
      "district_id": "57",
      "name": "Domar",
      "bn_name": "ডোমার"
    },
    {
      "id": "442",
      "district_id": "57",
      "name": "Jaldhaka",
      "bn_name": "জলঢাকা"
    },
    {
      "id": "443",
      "district_id": "57",
      "name": "Kishoreganj",
      "bn_name": "কিশোরগঞ্জ"
    },
    {
      "id": "444",
      "district_id": "57",
      "name": "Nilphamari Sadar",
      "bn_name": "নীলফামারী সদর"
    },
    {
      "id": "445",
      "district_id": "57",
      "name": "Saidpur",
      "bn_name": "সৈয়দপুর"
    },
    {
      "id": "446",
      "district_id": "58",
      "name": "Atwari",
      "bn_name": "আটোয়ারী"
    },
    {
      "id": "447",
      "district_id": "58",
      "name": "Boda",
      "bn_name": "বোদা"
    },
    {
      "id": "448",
      "district_id": "58",
      "name": "Debiganj",
      "bn_name": "দেবীগঞ্জ"
    },
    {
      "id": "449",
      "district_id": "58",
      "name": "Panchagarh Sadar",
      "bn_name": "পঞ্চগড় সদর"
    },
    {
      "id": "450",
      "district_id": "58",
      "name": "Tetulia",
      "bn_name": "তেঁতুলিয়া"
    },
    {
      "id": "451",
      "district_id": "59",
      "name": "Badarganj",
      "bn_name": "বদরগঞ্জ"
    },
    {
      "id": "452",
      "district_id": "59",
      "name": "Gangachhara",
      "bn_name": "গংগাচড়া"
    },
    {
      "id": "453",
      "district_id": "59",
      "name": "Kaunia",
      "bn_name": "কাউনিয়া"
    },
    {
      "id": "454",
      "district_id": "59",
      "name": "Rangpur Sadar",
      "bn_name": "রংপুর সদর"
    },
    {
      "id": "455",
      "district_id": "59",
      "name": "Mithapukur",
      "bn_name": "মিঠাপুকুর"
    },
    {
      "id": "456",
      "district_id": "59",
      "name": "Pirgachha",
      "bn_name": "পীরগাছা"
    },
    {
      "id": "457",
      "district_id": "59",
      "name": "Pirganj",
      "bn_name": "পীরগঞ্জ"
    },
    {
      "id": "458",
      "district_id": "59",
      "name": "Taraganj",
      "bn_name": "তারাগঞ্জ"
    },
    {
      "id": "459",
      "district_id": "60",
      "name": "Baliadangi",
      "bn_name": "বালিয়াডাঙ্গী"
    },
    {
      "id": "460",
      "district_id": "60",
      "name": "Haripur",
      "bn_name": "হরিপুর"
    },
    {
      "id": "461",
      "district_id": "60",
      "name": "Pirganj",
      "bn_name": "পীরগঞ্জ"
    },
    {
      "id": "462",
      "district_id": "60",
      "name": "Ranisankail",
      "bn_name": "রাণীশংকৈল"
    },
    {
      "id": "463",
      "district_id": "60",
      "name": "Thakurgaon Sadar",
      "bn_name": "ঠাকুরগাঁও সদর"
    },
    {
      "id": "464",
      "district_id": "61",
      "name": "Baksiganj",
      "bn_name": "বক্সিগঞ্জ"
    },
    {
      "id": "465",
      "district_id": "61",
      "name": "Dewanganj",
      "bn_name": "দেওয়ানগঞ্জ"
    },
    {
      "id": "466",
      "district_id": "61",
      "name": "Islampur",
      "bn_name": "ইসলামপুর"
    },
    {
      "id": "467",
      "district_id": "61",
      "name": "Jamalpur Sadar",
      "bn_name": "জামালপুর সদর"
    },
    {
      "id": "468",
      "district_id": "61",
      "name": "Madarganj",
      "bn_name": "মাদারগঞ্জ"
    },
    {
      "id": "469",
      "district_id": "61",
      "name": "Melandaha",
      "bn_name": "মেলান্দহ"
    },
    {
      "id": "470",
      "district_id": "61",
      "name": "Sarishabari",
      "bn_name": "সরিষাবাড়ী"
    },
    {
      "id": "471",
      "district_id": "62",
      "name": "Bhaluka",
      "bn_name": "ভালুকা"
    },
    {
      "id": "472",
      "district_id": "62",
      "name": "Dhobaura",
      "bn_name": "ধোবাউড়া"
    },
    {
      "id": "473",
      "district_id": "62",
      "name": "Fulbaria",
      "bn_name": "ফুলবাড়ীয়া"
    },
    {
      "id": "474",
      "district_id": "62",
      "name": "Gaffargaon",
      "bn_name": "গফরগাঁও"
    },
    {
      "id": "475",
      "district_id": "62",
      "name": "Gauripur",
      "bn_name": "গৌরীপুর"
    },
    {
      "id": "476",
      "district_id": "62",
      "name": "Haluaghat",
      "bn_name": "হালুয়াঘাট"
    },
    {
      "id": "477",
      "district_id": "62",
      "name": "Ishwarganj",
      "bn_name": "ঈশ্বরগঞ্জ"
    },
    {
      "id": "478",
      "district_id": "62",
      "name": "Mymensingh Sadar",
      "bn_name": "ময়মনসিংহ সদর"
    },
    {
      "id": "479",
      "district_id": "62",
      "name": "Muktagachha",
      "bn_name": "মুক্তাগাছা"
    },
    {
      "id": "480",
      "district_id": "62",
      "name": "Nandail",
      "bn_name": "নান্দাইল"
    },
    {
      "id": "481",
      "district_id": "62",
      "name": "Phulpur",
      "bn_name": "ফুলপুর"
    },
    {
      "id": "482",
      "district_id": "62",
      "name": "Trishal",
      "bn_name": "ত্রিশাল"
    },
    {
      "id": "483",
      "district_id": "62",
      "name": "Tara Khanda",
      "bn_name": "তারাখন্দা"
    },
    {
      "id": "484",
      "district_id": "63",
      "name": "Atpara",
      "bn_name": "আটপাড়া"
    },
    {
      "id": "485",
      "district_id": "63",
      "name": "Barhatta",
      "bn_name": "বারহাট্টা"
    },
    {
      "id": "486",
      "district_id": "63",
      "name": "Durgapur",
      "bn_name": "দুর্গাপুর"
    },
    {
      "id": "487",
      "district_id": "63",
      "name": "Khaliajuri",
      "bn_name": "খালিয়াজুরী"
    },
    {
      "id": "488",
      "district_id": "63",
      "name": "Kalmakanda",
      "bn_name": "কলমাকান্দা"
    },
    {
      "id": "489",
      "district_id": "63",
      "name": "Kendua",
      "bn_name": "কেন্দুয়া"
    },
    {
      "id": "490",
      "district_id": "63",
      "name": "Madan",
      "bn_name": "মদন"
    },
    {
      "id": "491",
      "district_id": "63",
      "name": "Mohanganj",
      "bn_name": "মোহনগঞ্জ"
    },
    {
      "id": "492",
      "district_id": "63",
      "name": "Netrokona Sadar",
      "bn_name": "নেত্রকোনা সদর"
    },
    {
      "id": "493",
      "district_id": "63",
      "name": "Purbadhala",
      "bn_name": "পূর্বধলা"
    },
    {
      "id": "494",
      "district_id": "64",
      "name": "Jhenaigati",
      "bn_name": "ঝিনাইগাতী"
    },
    {
      "id": "495",
      "district_id": "64",
      "name": "Nakla",
      "bn_name": "নাকলা"
    },
    {
      "id": "496",
      "district_id": "64",
      "name": "Nalitabari",
      "bn_name": "নালিতাবাড়ী"
    },
    {
      "id": "497",
      "district_id": "64",
      "name": "Sherpur Sadar",
      "bn_name": "শেরপুর সদর"
    },
    {
      "id": "498",
      "district_id": "64",
      "name": "Sreebardi",
      "bn_name": "শ্রীবরদী"
    }
  ]
}